[{"OBJECT_NAME":"STARLINK-5767","OBJECT_ID":"2023-020T","EPOCH":"2026-03-09T22:00:01.999584","MEAN_MOTION":15.13072971,"ECCENTRICITY":8.839e-5,"INCLINATION":43.0001,"RA_OF_ASC_NODE":2.8554,"ARG_OF_PERICENTER":253.5362,"MEAN_ANOMALY":331.6672,"EPHEMERIS_TYPE":0,"CLASSIFICATION_TYPE":"U","NORAD_CAT_ID":55586,"ELEMENT_SET_NO":999,"REV_AT_EPOCH":573,"BSTAR":0.0015565881,"MEAN_MOTION_DOT":0.00027911,"MEAN_MOTION_DDOT":0},{"OBJECT_NAME":"FALCON 9 DEB","OBJECT_ID":"2021-041BH","EPOCH":"2026-03-09T15:22:42.897792","MEAN_MOTION":15.1290094,"ECCENTRICITY":0.0010029,"INCLINATION":53.0279,"RA_OF_ASC_NODE":186.1166,"ARG_OF_PERICENTER":187.1036,"MEAN_ANOMALY":172.9815,"EPHEMERIS_TYPE":0,"CLASSIFICATION_TYPE":"U","NORAD_CAT_ID":48608,"ELEMENT_SET_NO":999,"REV_AT_EPOCH":26435,"BSTAR":0.00033747,"MEAN_MOTION_DOT":5.718e-5,"MEAN_MOTION_DDOT":0}]
